STARLINK-1759
1 26340C 20062S   21325.16631794  .00009105  00000-0  61001-3 0  3256
2 26340  53.0517 222.4812 0001864  74.6920 329.1326 15.06389656    14
